{
  "norad_id": 68222,
  "name": "STARLINK-37110",
  "history": [
    {
      "epoch": "2026-04-11T20:00:01.000224Z",
      "apogee_km": 383.39875250933346,
      "perigee_km": 380.6919754907867,
      "latitude_deg": -53.266491651006625,
      "longitude_deg": 7.934784614653134,
      "height_km": 403.90814370254384,
      "semi_major_axis_km": 6760.182364000059,
      "eccentricity": 0.0002002,
      "inclination_deg": 97.285,
      "raan_deg": 337.7938,
      "arg_perigee_deg": 88.4727,
      "mean_anomaly_deg": 145.1524,
      "mean_motion_rev_day": 15.61942868
    },
    {
      "epoch": "2026-04-13T06:00:02.000160Z",
      "apogee_km": 400.7682462528219,
      "perigee_km": 397.84052712259927,
      "latitude_deg": -76.96941636969008,
      "longitude_deg": -165.52756811066996,
      "height_km": 428.28576836217377,
      "semi_major_axis_km": 6777.44138668771,
      "eccentricity": 0.00021599,
      "inclination_deg": 97.2859,
      "raan_deg": 339.2484,
      "arg_perigee_deg": 103.1456,
      "mean_anomaly_deg": 155.8928,
      "mean_motion_rev_day": 15.55980344
    },
    {
      "epoch": "2026-04-14T20:00:01.999008Z",
      "apogee_km": 419.170684580281,
      "perigee_km": 417.0393830784724,
      "latitude_deg": 75.03550487237315,
      "longitude_deg": 46.241397744650705,
      "height_km": 429.9748989378072,
      "semi_major_axis_km": 6796.242033829376,
      "eccentricity": 0.0001568,
      "inclination_deg": 97.2849,
      "raan_deg": 340.8546,
      "arg_perigee_deg": 78.6873,
      "mean_anomaly_deg": 24.4874,
      "mean_motion_rev_day": 15.49528279
    },
    {
      "epoch": "2026-04-15T20:00:01.999008Z",
      "apogee_km": 430.8748228650593,
      "perigee_km": 427.81417918219904,
      "latitude_deg": -82.73505224323027,
      "longitude_deg": -76.52899610070386,
      "height_km": 459.2775930868562,
      "semi_major_axis_km": 6807.481501023629,
      "eccentricity": 0.0002248,
      "inclination_deg": 97.2838,
      "raan_deg": 341.8551,
      "arg_perigee_deg": 98.1124,
      "mean_anomaly_deg": 172.4431,
      "mean_motion_rev_day": 15.45692349
    },
    {
      "epoch": "2026-04-16T20:00:01.999008Z",
      "apogee_km": 443.2345802383552,
      "perigee_km": 440.5911289147216,
      "latitude_deg": 62.122994292555724,
      "longitude_deg": -176.02657221539133,
      "height_km": 451.35865928916957,
      "semi_major_axis_km": 6820.049854576539,
      "eccentricity": 0.0001938,
      "inclination_deg": 97.2853,
      "raan_deg": 342.8641,
      "arg_perigee_deg": 83.0925,
      "mean_anomaly_deg": 339.8311,
      "mean_motion_rev_day": 15.41421591
    },
    {
      "epoch": "2026-04-17T22:00:01.999584Z",
      "apogee_km": 456.52647848936067,
      "perigee_km": 454.384147299269,
      "latitude_deg": -58.572346118858825,
      "longitude_deg": 179.89172853958144,
      "height_km": 479.0397599834709,
      "semi_major_axis_km": 6833.592312894315,
      "eccentricity": 0.00015675,
      "inclination_deg": 97.2825,
      "raan_deg": 343.9395,
      "arg_perigee_deg": 87.0074,
      "mean_anomaly_deg": 213.8922,
      "mean_motion_rev_day": 15.36841798
    },
    {
      "epoch": "2026-04-18T20:00:01.000224Z",
      "apogee_km": 463.6703702949926,
      "perigee_km": 461.1092770522082,
      "latitude_deg": -36.829628684727204,
      "longitude_deg": -156.6525215552308,
      "height_km": 477.31272122979135,
      "semi_major_axis_km": 6840.5268236736,
      "eccentricity": 0.0001872,
      "inclination_deg": 97.2837,
      "raan_deg": 344.836,
      "arg_perigee_deg": 94.192,
      "mean_anomaly_deg": 228.9237,
      "mean_motion_rev_day": 15.34505455
    },
    {
      "epoch": "2026-04-19T20:00:01.999008Z",
      "apogee_km": 466.8796159602771,
      "perigee_km": 464.23384396427355,
      "latitude_deg": 78.94147871777982,
      "longitude_deg": 157.30282429638888,
      "height_km": 477.5197560123626,
      "semi_major_axis_km": 6843.693729962275,
      "eccentricity": 0.0001933,
      "inclination_deg": 97.285,
      "raan_deg": 345.8213,
      "arg_perigee_deg": 90.7151,
      "mean_anomaly_deg": 350.8768,
      "mean_motion_rev_day": 15.33440444
    },
    {
      "epoch": "2026-04-20T14:00:03.000384Z",
      "apogee_km": 466.9617422198735,
      "perigee_km": 464.35069823049344,
      "latitude_deg": -77.13347351682157,
      "longitude_deg": 74.0602633668918,
      "height_km": 494.62041940724697,
      "semi_major_axis_km": 6843.793220225183,
      "eccentricity": 0.00019076,
      "inclination_deg": 97.285,
      "raan_deg": 346.5641,
      "arg_perigee_deg": 87.5006,
      "mean_anomaly_deg": 171.7454,
      "mean_motion_rev_day": 15.33407006
    },
    {
      "epoch": "2026-04-21T20:00:01.999008Z",
      "apogee_km": 466.87623062384955,
      "perigee_km": 464.20172205229755,
      "latitude_deg": -44.65926763650361,
      "longitude_deg": -154.90023628250847,
      "height_km": 483.8667383577492,
      "semi_major_axis_km": 6843.675976338073,
      "eccentricity": 0.0001954,
      "inclination_deg": 97.285,
      "raan_deg": 347.7947,
      "arg_perigee_deg": 95.2524,
      "mean_anomaly_deg": 219.9158,
      "mean_motion_rev_day": 15.33446411
    },
    {
      "epoch": "2026-04-22T20:00:03.000384Z",
      "apogee_km": 466.74905331828177,
      "perigee_km": 464.25112578059725,
      "latitude_deg": 70.70444057976374,
      "longitude_deg": 176.5864484995091,
      "height_km": 476.57083580344676,
      "semi_major_axis_km": 6843.637089549439,
      "eccentricity": 0.0001825,
      "inclination_deg": 97.2854,
      "raan_deg": 348.7812,
      "arg_perigee_deg": 93.8279,
      "mean_anomaly_deg": 338.1792,
      "mean_motion_rev_day": 15.33459481
    },
    {
      "epoch": "2026-04-23T00:00:02.000160Z",
      "apogee_km": 466.942109489979,
      "perigee_km": 464.37075942078445,
      "latitude_deg": -82.6183521604913,
      "longitude_deg": -143.19856515527275,
      "height_km": 495.34270361596936,
      "semi_major_axis_km": 6843.793434455381,
      "eccentricity": 0.00018786,
      "inclination_deg": 97.2852,
      "raan_deg": 348.9456,
      "arg_perigee_deg": 96.047,
      "mean_anomaly_deg": 175.3785,
      "mean_motion_rev_day": 15.33406934
    },
    {
      "epoch": "2026-04-24T17:06:21.028896Z",
      "apogee_km": 466.8970931730064,
      "perigee_km": 464.200680933508,
      "latitude_deg": -2.8914019278412117e-05,
      "longitude_deg": -118.69649647655353,
      "height_km": 468.7047228147413,
      "semi_major_axis_km": 6843.685887053257,
      "eccentricity": 0.000197,
      "inclination_deg": 97.2859,
      "raan_deg": 350.6328,
      "arg_perigee_deg": 91.9994,
      "mean_anomaly_deg": 268.1474,
      "mean_motion_rev_day": 15.3344308
    },
    {
      "epoch": "2026-04-24T17:06:21.029760Z",
      "apogee_km": 466.8971616098652,
      "perigee_km": 464.2006124966483,
      "latitude_deg": -3.0057431230922797e-05,
      "longitude_deg": -118.69649994103251,
      "height_km": 468.70472520321204,
      "semi_major_axis_km": 6843.685887053257,
      "eccentricity": 0.00019701,
      "inclination_deg": 97.2859,
      "raan_deg": 350.6328,
      "arg_perigee_deg": 91.9994,
      "mean_anomaly_deg": 268.1474,
      "mean_motion_rev_day": 15.3344308
    },
    {
      "epoch": "2026-04-27T12:26:57.662016Z",
      "apogee_km": 466.77778114511875,
      "perigee_km": 464.3236347330512,
      "latitude_deg": -4.888143828260922e-06,
      "longitude_deg": -48.849036514370574,
      "height_km": 468.6963483989218,
      "semi_major_axis_km": 6843.687707939084,
      "eccentricity": 0.0001793,
      "inclination_deg": 97.2862,
      "raan_deg": 353.3986,
      "arg_perigee_deg": 91.7069,
      "mean_anomaly_deg": 268.4379,
      "mean_motion_rev_day": 15.33442468
    },
    {
      "epoch": "2026-04-28T21:20:17.043360Z",
      "apogee_km": 466.7124786920758,
      "perigee_km": 464.35278140363516,
      "latitude_deg": -2.737032836637121e-05,
      "longitude_deg": 177.82032015569703,
      "height_km": 468.75959795774946,
      "semi_major_axis_km": 6843.669630047855,
      "eccentricity": 0.0001724,
      "inclination_deg": 97.2861,
      "raan_deg": 354.7494,
      "arg_perigee_deg": 95.7259,
      "mean_anomaly_deg": 264.418,
      "mean_motion_rev_day": 15.33448544
    },
    {
      "epoch": "2026-04-29T17:41:51.849888Z",
      "apogee_km": 466.6989468134143,
      "perigee_km": 464.3816776754884,
      "latitude_deg": 8.96563821454376e-06,
      "longitude_deg": -127.57435327120832,
      "height_km": 468.75427657224805,
      "semi_major_axis_km": 6843.677312244451,
      "eccentricity": 0.0001693,
      "inclination_deg": 97.2857,
      "raan_deg": 355.5859,
      "arg_perigee_deg": 95.1826,
      "mean_anomaly_deg": 264.961,
      "mean_motion_rev_day": 15.33445962
    },
    {
      "epoch": "2026-04-30T15:37:24.506112Z",
      "apogee_km": 466.66738807892125,
      "perigee_km": 464.3368552124357,
      "latitude_deg": 3.0052376504848237e-05,
      "longitude_deg": -96.46058184673963,
      "height_km": 468.6495776815171,
      "semi_major_axis_km": 6843.639121645679,
      "eccentricity": 0.00017027,
      "inclination_deg": 97.2855,
      "raan_deg": 356.4862,
      "arg_perigee_deg": 91.8773,
      "mean_anomaly_deg": 268.2665,
      "mean_motion_rev_day": 15.33458798
    }
  ]
}